{"type": "FeatureCollection", "features": [{"type": "Feature", "geometry": {"type": "Point", "coordinates": [126.870819, 35.12484815]}, "properties": {"addr": "전남광주통합특별시 서구 풍암신흥로50번길 50", "cnt": 1, "place": "여자화장실 내", "type": "화장실"}}, {"type": "Feature", "geometry": {"type": "Point", "coordinates": [126.8791788, 35.12487156]}, "properties": {"addr": "전남광주통합특별시 서구 풍암2로 26", "cnt": 1, "place": "여자화장실 내", "type": "화장실"}}, {"type": "Feature", "geometry": {"type": "Point", "coordinates": [126.8866743, 35.12875344]}, "properties": {"addr": "전남광주통합특별시 서구 풍암순환로128번길 86", "cnt": 1, "place": "여자화장실 내", "type": "화장실"}}, {"type": "Feature", "geometry": {"type": "Point", "coordinates": [126.8866743, 35.12875344]}, "properties": {"addr": "전남광주통합특별시 서구 풍암순환로128번길 86", "cnt": 1, "place": "여자화장실 내", "type": "화장실"}}, {"type": "Feature", "geometry": {"type": "Point", "coordinates": [126.8706389, 35.12994834]}, "properties": {"addr": "전남광주통합특별시 서구 풍암동 432", "cnt": 1, "place": "여자화장실 내", "type": "화장실"}}, {"type": "Feature", "geometry": {"type": "Point", "coordinates": [126.8568134, 35.11900222]}, "properties": {"addr": "전남광주통합특별시 서구 회재로 97", "cnt": 1, "place": "여자화장실 내", "type": "화장실"}}, {"type": "Feature", "geometry": {"type": "Point", "coordinates": [126.8839229, 35.12937717]}, "properties": {"addr": "전남광주통합특별시 서구 회재로 1113", "cnt": 1, "place": "여자화장실 내", "type": "화장실"}}, {"type": "Feature", "geometry": {"type": "Point", "coordinates": [126.8839229, 35.12937717]}, "properties": {"addr": "전남광주통합특별시 서구 회재로 1113", "cnt": 1, "place": "여자화장실 내", "type": "화장실"}}, {"type": "Feature", "geometry": {"type": "Point", "coordinates": [126.8726711, 35.14412805]}, "properties": {"addr": "전남광주통합특별시 서구 화정로138번길 12", "cnt": 1, "place": "여자화장실 내", "type": "화장실"}}, {"type": "Feature", "geometry": {"type": "Point", "coordinates": [126.8694916, 35.14390918]}, "properties": {"addr": "전남광주통합특별시 서구 화정로 106-25", "cnt": 1, "place": "여자화장실 내", "type": "화장실"}}, {"type": "Feature", "geometry": {"type": "Point", "coordinates": [126.8672538, 35.14385225]}, "properties": {"addr": "전남광주통합특별시 서구 학생독립로 11", "cnt": 1, "place": "여자화장실 내", "type": "화장실"}}, {"type": "Feature", "geometry": {"type": "Point", "coordinates": [126.876985, 35.14084193]}, "properties": {"addr": "전남광주통합특별시 서구 월드컵4강로42번길 12-8", "cnt": 1, "place": "여자화장실 내", "type": "화장실"}}, {"type": "Feature", "geometry": {"type": "Point", "coordinates": [126.8723483, 35.14286311]}, "properties": {"addr": "전남광주통합특별시 서구 염화로83번길 20", "cnt": 1, "place": "여자화장실 내", "type": "화장실"}}, {"type": "Feature", "geometry": {"type": "Point", "coordinates": [126.8717201, 35.137485]}, "properties": {"addr": "전남광주통합특별시 서구 염화로31번길 10", "cnt": 1, "place": "여자화장실 내", "type": "화장실"}}, {"type": "Feature", "geometry": {"type": "Point", "coordinates": [126.8792571, 35.14160208]}, "properties": {"addr": "전남광주통합특별시 서구 염화로134번길 18", "cnt": 1, "place": "여자화장실 내", "type": "화장실"}}, {"type": "Feature", "geometry": {"type": "Point", "coordinates": [126.871442, 35.16879657]}, "properties": {"addr": "전남광주통합특별시 서구 동천동 660", "cnt": 1, "place": "장애인화장실 내", "type": "화장실"}}, {"type": "Feature", "geometry": {"type": "Point", "coordinates": [126.871442, 35.16879657]}, "properties": {"addr": "전남광주통합특별시 서구 동천동 660", "cnt": 1, "place": "여자화장실 내", "type": "화장실"}}, {"type": "Feature", "geometry": {"type": "Point", "coordinates": [126.8573882, 35.16822331]}, "properties": {"addr": "전남광주통합특별시 서구 천변우하로 337", "cnt": 1, "place": "장애인화장실 내", "type": "화장실"}}, {"type": "Feature", "geometry": {"type": "Point", "coordinates": [126.8573882, 35.16822331]}, "properties": {"addr": "전남광주통합특별시 서구 천변우하로 337", "cnt": 1, "place": "여자화장실 내", "type": "화장실"}}, {"type": "Feature", "geometry": {"type": "Point", "coordinates": [126.863088, 35.1688177]}, "properties": {"addr": "전남광주통합특별시 서구 천변우하로 392", "cnt": 1, "place": "여자화장실 내", "type": "화장실"}}, {"type": "Feature", "geometry": {"type": "Point", "coordinates": [126.8781839, 35.16945403]}, "properties": {"addr": "전남광주통합특별시 서구 광천동 691-1", "cnt": 1, "place": "여자화장실 내", "type": "화장실"}}, {"type": "Feature", "geometry": {"type": "Point", "coordinates": [126.8848356, 35.15983448]}, "properties": {"addr": "전남광주통합특별시 서구 농성동 417-8", "cnt": 1, "place": "여자화장실 내", "type": "화장실"}}, {"type": "Feature", "geometry": {"type": "Point", "coordinates": [126.8914751, 35.15991336]}, "properties": {"addr": "전남광주통합특별시 서구 양동 440-5", "cnt": 1, "place": "여자화장실 내", "type": "화장실"}}, {"type": "Feature", "geometry": {"type": "Point", "coordinates": [126.9038107, 35.15265209]}, "properties": {"addr": "전남광주통합특별시 서구 양동시장1길 28-6", "cnt": 1, "place": "여자화장실 내", "type": "화장실"}}, {"type": "Feature", "geometry": {"type": "Point", "coordinates": [126.8667338, 35.14653353]}, "properties": {"addr": "전남광주통합특별시 서구 쌍촌동 1205", "cnt": 1, "place": "칸칸이 비상벨", "type": "화장실"}}, {"type": "Feature", "geometry": {"type": "Point", "coordinates": [126.8667338, 35.14653353]}, "properties": {"addr": "전남광주통합특별시 서구 화정로85번길 18", "cnt": 1, "place": "여자화장실 내", "type": "화장실"}}, {"type": "Feature", "geometry": {"type": "Point", "coordinates": [126.8631745, 35.14600447]}, "properties": {"addr": "전남광주통합특별시 서구 화정로49번길 14", "cnt": 1, "place": "여자화장실 내", "type": "화장실"}}, {"type": "Feature", "geometry": {"type": "Point", "coordinates": [126.8605196, 35.14121122]}, "properties": {"addr": "전남광주통합특별시 서구 금부로103번길 16-10", "cnt": 1, "place": "여자화장실 내", "type": "화장실"}}, {"type": "Feature", "geometry": {"type": "Point", "coordinates": [126.8587985, 35.14344852]}, "properties": {"addr": "전남광주통합특별시 서구 운천로114번길 7-10", "cnt": 1, "place": "여자화장실 내", "type": "화장실"}}, {"type": "Feature", "geometry": {"type": "Point", "coordinates": [126.8608611, 35.14506335]}, "properties": {"addr": "전남광주통합특별시 서구 화정로21번길 4-21", "cnt": 1, "place": "여자화장실 내", "type": "화장실"}}, {"type": "Feature", "geometry": {"type": "Point", "coordinates": [126.8549287, 35.13611082]}, "properties": {"addr": "전남광주통합특별시 서구 금호동 305-1", "cnt": 1, "place": "여자화장실 내", "type": "화장실"}}, {"type": "Feature", "geometry": {"type": "Point", "coordinates": [126.8470679, 35.11692697]}, "properties": {"addr": "전남광주통합특별시 서구 전평길 37-3", "cnt": 1, "place": "장애인화장실 내", "type": "화장실"}}, {"type": "Feature", "geometry": {"type": "Point", "coordinates": [126.8470679, 35.11692697]}, "properties": {"addr": "전남광주통합특별시 서구 전평길 37-3", "cnt": 1, "place": "여자화장실 내", "type": "화장실"}}, {"type": "Feature", "geometry": {"type": "Point", "coordinates": [126.8575844, 35.14080504]}, "properties": {"addr": "전남광주통합특별시 서구 운천로91번길 9", "cnt": 1, "place": "여자화장실 내", "type": "화장실"}}, {"type": "Feature", "geometry": {"type": "Point", "coordinates": [126.8562225, 35.14717402]}, "properties": {"addr": "전남광주통합특별시 서구 쌍촌동 869-9", "cnt": 1, "place": "터치판", "type": "화장실"}}, {"type": "Feature", "geometry": {"type": "Point", "coordinates": [126.8562225, 35.14717402]}, "properties": {"addr": "전남광주통합특별시 서구 운천로 165", "cnt": 1, "place": "여자화장실 내", "type": "화장실"}}, {"type": "Feature", "geometry": {"type": "Point", "coordinates": [126.8341833, 35.12040042]}, "properties": {"addr": "전남광주통합특별시 서구 동하길 14-11", "cnt": 1, "place": "여자화장실 내", "type": "화장실"}}, {"type": "Feature", "geometry": {"type": "Point", "coordinates": [126.8573523, 35.13463737]}, "properties": {"addr": "전남광주통합특별시 서구 금화로73번길 28-8", "cnt": 1, "place": "여자화장실 내", "type": "화장실"}}, {"type": "Feature", "geometry": {"type": "Point", "coordinates": [126.8629578, 35.13790798]}, "properties": {"addr": "전남광주통합특별시 서구 금화로149번길 62", "cnt": 1, "place": "여자화장실 내", "type": "화장실"}}, {"type": "Feature", "geometry": {"type": "Point", "coordinates": [126.8610363, 35.1372049]}, "properties": {"addr": "전남광주통합특별시 서구 금화로115번길 52", "cnt": 1, "place": "여자화장실 내", "type": "화장실"}}, {"type": "Feature", "geometry": {"type": "Point", "coordinates": [126.8609506, 35.1331118]}, "properties": {"addr": "전남광주통합특별시 서구 금화로115번길 3", "cnt": 1, "place": "여자화장실 내", "type": "화장실"}}, {"type": "Feature", "geometry": {"type": "Point", "coordinates": [126.8574033, 35.13648569]}, "properties": {"addr": "전남광주통합특별시 서구 금호동 741-2", "cnt": 1, "place": "여자화장실 내", "type": "화장실"}}, {"type": "Feature", "geometry": {"type": "Point", "coordinates": [126.8287574, 35.13849306]}, "properties": {"addr": "전남광주통합특별시 서구 서창둑길 377", "cnt": 1, "place": "여자화장실 내", "type": "화장실"}}, {"type": "Feature", "geometry": {"type": "Point", "coordinates": [126.8178726, 35.1126079]}, "properties": {"addr": "전남광주통합특별시 서구 서창동 742-2", "cnt": 1, "place": "여자화장실 내", "type": "화장실"}}, {"type": "Feature", "geometry": {"type": "Point", "coordinates": [126.831276, 35.14577348]}, "properties": {"addr": "전남광주통합특별시 서구 마륵동 606", "cnt": 1, "place": "여자화장실 내", "type": "화장실"}}, {"type": "Feature", "geometry": {"type": "Point", "coordinates": [126.8403257, 35.17315417]}, "properties": {"addr": "전남광주통합특별시 서구 유덕로 237", "cnt": 1, "place": "여자화장실 내", "type": "화장실"}}, {"type": "Feature", "geometry": {"type": "Point", "coordinates": [126.8320689, 35.16864917]}, "properties": {"addr": "전남광주통합특별시 서구 덕흥동 981-3", "cnt": 1, "place": "여자화장실 내", "type": "화장실"}}, {"type": "Feature", "geometry": {"type": "Point", "coordinates": [126.8433953, 35.15714791]}, "properties": {"addr": "전남광주통합특별시 서구 상무공원로 142", "cnt": 1, "place": "여자화장실 내", "type": "화장실"}}, {"type": "Feature", "geometry": {"type": "Point", "coordinates": [126.8465885, 35.15330236]}, "properties": {"addr": "전남광주통합특별시 서구 치평로 67", "cnt": 1, "place": "여자화장실 내", "type": "화장실"}}, {"type": "Feature", "geometry": {"type": "Point", "coordinates": [126.8622581, 35.15587506]}, "properties": {"addr": "전남광주통합특별시 서구 상무오월로19번길 4-13", "cnt": 1, "place": "여자화장실 내", "type": "화장실"}}, {"type": "Feature", "geometry": {"type": "Point", "coordinates": [126.8395171, 35.15354139]}, "properties": {"addr": "전남광주통합특별시 서구 상무누리로 120", "cnt": 1, "place": "여자화장실 내", "type": "화장실"}}, {"type": "Feature", "geometry": {"type": "Point", "coordinates": [126.8422248, 35.15221519]}, "properties": {"addr": "전남광주통합특별시 서구 상무자유로 73", "cnt": 1, "place": "여자화장실 내", "type": "화장실"}}, {"type": "Feature", "geometry": {"type": "Point", "coordinates": [126.8398331, 35.15215629]}, "properties": {"addr": "전남광주통합특별시 서구 치평동 1162", "cnt": 1, "place": "여자화장실 내", "type": "화장실"}}, {"type": "Feature", "geometry": {"type": "Point", "coordinates": [126.8393165, 35.15608137]}, "properties": {"addr": "전남광주통합특별시 서구 상무누리로 148", "cnt": 1, "place": "여자화장실 내", "type": "화장실"}}, {"type": "Feature", "geometry": {"type": "Point", "coordinates": [126.8395171, 35.15354139]}, "properties": {"addr": "전남광주통합특별시 서구 상무누리로 120", "cnt": 1, "place": "여자화장실 내", "type": "화장실"}}, {"type": "Feature", "geometry": {"type": "Point", "coordinates": [126.8422248, 35.15221519]}, "properties": {"addr": "전남광주통합특별시 서구 상무자유로 73", "cnt": 1, "place": "여자화장실 내", "type": "화장실"}}, {"type": "Feature", "geometry": {"type": "Point", "coordinates": [126.8398331, 35.15215629]}, "properties": {"addr": "전남광주통합특별시 서구 치평동 1162", "cnt": 1, "place": "여자화장실 내", "type": "화장실"}}, {"type": "Feature", "geometry": {"type": "Point", "coordinates": [126.8420116, 35.15564742]}, "properties": {"addr": "전남광주통합특별시 서구 상무시민로 27", "cnt": 1, "place": "여자화장실 내", "type": "화장실"}}, {"type": "Feature", "geometry": {"type": "Point", "coordinates": [126.8439731, 35.14965391]}, "properties": {"addr": "전남광주통합특별시 서구 상무공원로 58", "cnt": 1, "place": "여자화장실 내", "type": "화장실"}}, {"type": "Feature", "geometry": {"type": "Point", "coordinates": [126.8585094, 35.16181602]}, "properties": {"addr": "전남광주통합특별시 서구 무진대로 714", "cnt": 1, "place": "여자화장실 내", "type": "화장실"}}, {"type": "Feature", "geometry": {"type": "Point", "coordinates": [126.843962, 35.14655304]}, "properties": {"addr": "전남광주통합특별시 서구 마륵로 115", "cnt": 1, "place": "여자화장실 내", "type": "화장실"}}, {"type": "Feature", "geometry": {"type": "Point", "coordinates": [126.8577873, 35.16086277]}, "properties": {"addr": "전남광주통합특별시 서구 계수로59번길 4-9", "cnt": 1, "place": "여자화장실 내", "type": "화장실"}}, {"type": "Feature", "geometry": {"type": "Point", "coordinates": [126.9167, 35.1324]}, "properties": {"addr": "nan", "cnt": 1, "place": "방림1어린이공원 화장실", "type": "화장실"}}, {"type": "Feature", "geometry": {"type": "Point", "coordinates": [126.9147, 35.1308]}, "properties": {"addr": "nan", "cnt": 1, "place": "방림2어린이공원 화장실", "type": "화장실"}}, {"type": "Feature", "geometry": {"type": "Point", "coordinates": [126.9168, 35.1297]}, "properties": {"addr": "nan", "cnt": 1, "place": "방림3어린이공원 화장실", "type": "화장실"}}, {"type": "Feature", "geometry": {"type": "Point", "coordinates": [126.9089, 35.1302]}, "properties": {"addr": "nan", "cnt": 1, "place": "봉선1어린이공원 화장실", "type": "화장실"}}, {"type": "Feature", "geometry": {"type": "Point", "coordinates": [126.9124, 35.1288]}, "properties": {"addr": "nan", "cnt": 1, "place": "봉선2어린이공원 화장실", "type": "화장실"}}, {"type": "Feature", "geometry": {"type": "Point", "coordinates": [126.9084, 35.1273]}, "properties": {"addr": "nan", "cnt": 1, "place": "봉선3어린이공원 화장실", "type": "화장실"}}, {"type": "Feature", "geometry": {"type": "Point", "coordinates": [126.9124, 35.1234]}, "properties": {"addr": "nan", "cnt": 1, "place": "방죽어린이공원 화장실", "type": "화장실"}}, {"type": "Feature", "geometry": {"type": "Point", "coordinates": [126.8938, 35.1392]}, "properties": {"addr": "nan", "cnt": 1, "place": "월산2어린이공원 화장실", "type": "화장실"}}, {"type": "Feature", "geometry": {"type": "Point", "coordinates": [126.911, 35.1305]}, "properties": {"addr": "nan", "cnt": 1, "place": "봉선근린공원 화장실", "type": "화장실"}}, {"type": "Feature", "geometry": {"type": "Point", "coordinates": [126.9166, 35.1231]}, "properties": {"addr": "nan", "cnt": 1, "place": "유안근린공원 화장실", "type": "화장실"}}, {"type": "Feature", "geometry": {"type": "Point", "coordinates": [126.8994, 35.1415]}, "properties": {"addr": "nan", "cnt": 1, "place": "월산근린공원1 화장실", "type": "화장실"}}, {"type": "Feature", "geometry": {"type": "Point", "coordinates": [126.8967, 35.1406]}, "properties": {"addr": "nan", "cnt": 1, "place": "월산근린공원2 화장실", "type": "화장실"}}, {"type": "Feature", "geometry": {"type": "Point", "coordinates": [126.9045, 35.1051]}, "properties": {"addr": "nan", "cnt": 1, "place": "물빛근린공원 화장실", "type": "화장실"}}, {"type": "Feature", "geometry": {"type": "Point", "coordinates": [126.8854, 35.1001]}, "properties": {"addr": "nan", "cnt": 1, "place": "효천천변길근린공원 화장실", "type": "화장실"}}, {"type": "Feature", "geometry": {"type": "Point", "coordinates": [126.9008, 35.11]}, "properties": {"addr": "nan", "cnt": 1, "place": "풀빛근린공원 화장실", "type": "화장실"}}, {"type": "Feature", "geometry": {"type": "Point", "coordinates": [126.9109, 35.1187]}, "properties": {"addr": "nan", "cnt": 1, "place": "제석산 입구 화장실", "type": "화장실"}}, {"type": "Feature", "geometry": {"type": "Point", "coordinates": [126.9018, 35.108]}, "properties": {"addr": "nan", "cnt": 1, "place": "풀빛근린공원 화장실2", "type": "화장실"}}, {"type": "Feature", "geometry": {"type": "Point", "coordinates": [126.894672, 35.20951424]}, "properties": {"addr": "전남광주통합특별시 북구 일곡택지로 88(일곡동)", "cnt": 1, "place": "여자화장실 내", "type": "화장실"}}, {"type": "Feature", "geometry": {"type": "Point", "coordinates": [126.8946482, 35.20951424]}, "properties": {"addr": "전남광주통합특별시 북구 일곡택지로 88(일곡동)", "cnt": 1, "place": "여자화장실 내", "type": "화장실"}}, {"type": "Feature", "geometry": {"type": "Point", "coordinates": [126.8983947, 35.20649972]}, "properties": {"addr": "전남광주통합특별시 북구 설죽로 526(일곡동)", "cnt": 1, "place": "여자화장실 내", "type": "화장실"}}, {"type": "Feature", "geometry": {"type": "Point", "coordinates": [126.8962296, 35.20259322]}, "properties": {"addr": "전남광주통합특별시 북구 양일로 297(일곡동)", "cnt": 1, "place": "여자화장실 내", "type": "화장실"}}, {"type": "Feature", "geometry": {"type": "Point", "coordinates": [126.8663366, 35.23301873]}, "properties": {"addr": "전남광주통합특별시 북구 추암로 190(월출동)", "cnt": 1, "place": "여자화장실 내", "type": "화장실"}}, {"type": "Feature", "geometry": {"type": "Point", "coordinates": [126.8587095, 35.21958358]}, "properties": {"addr": "전남광주통합특별시 북구 추암로 30(오룡동)", "cnt": 1, "place": "여자화장실 내", "type": "화장실"}}, {"type": "Feature", "geometry": {"type": "Point", "coordinates": [126.937634, 35.16510359]}, "properties": {"addr": "전남광주통합특별시 북구 삼정로 36(두암동)", "cnt": 1, "place": "여자화장실 내", "type": "화장실"}}, {"type": "Feature", "geometry": {"type": "Point", "coordinates": [126.9166864, 35.18491724]}, "properties": {"addr": "전남광주통합특별시 북구 대천로 86(문흥동)", "cnt": 1, "place": "여자화장실 내", "type": "화장실"}}, {"type": "Feature", "geometry": {"type": "Point", "coordinates": [126.9166864, 35.18491724]}, "properties": {"addr": "전남광주통합특별시 북구 대천로 86(문흥동)", "cnt": 1, "place": "여자화장실 내", "type": "화장실"}}, {"type": "Feature", "geometry": {"type": "Point", "coordinates": [126.9262421, 35.175634]}, "properties": {"addr": "전남광주통합특별시 북구 동문대로 141(우산동)", "cnt": 1, "place": "여자화장실 내", "type": "화장실"}}, {"type": "Feature", "geometry": {"type": "Point", "coordinates": [126.922083, 35.176714]}, "properties": {"addr": "전남광주통합특별시 북구 감적길 21(우산동)", "cnt": 1, "place": "여자화장실 내", "type": "화장실"}}, {"type": "Feature", "geometry": {"type": "Point", "coordinates": [126.8736607, 35.20253212]}, "properties": {"addr": "전남광주통합특별시 북구 하서로 309(양산동)", "cnt": 1, "place": "여자화장실 내", "type": "화장실"}}, {"type": "Feature", "geometry": {"type": "Point", "coordinates": [126.8613241, 35.20779341]}, "properties": {"addr": "전남광주통합특별시 북구 첨단연신로107번길 26(신용동)", "cnt": 1, "place": "여자화장실 내", "type": "화장실"}}, {"type": "Feature", "geometry": {"type": "Point", "coordinates": [126.8965128, 35.18365421]}, "properties": {"addr": "전남광주통합특별시 북구 문화소통로 22(용봉동)", "cnt": 1, "place": "여자화장실 내", "type": "화장실"}}, {"type": "Feature", "geometry": {"type": "Point", "coordinates": [126.914241, 35.18242782]}, "properties": {"addr": "전남광주통합특별시 북구 문화소통로 186(용봉동)", "cnt": 1, "place": "여자화장실 내", "type": "화장실"}}, {"type": "Feature", "geometry": {"type": "Point", "coordinates": [126.921268, 35.18022241]}, "properties": {"addr": "전남광주통합특별시 북구 중문로84번길 5(우산동)", "cnt": 1, "place": "여자화장실 내", "type": "화장실"}}, {"type": "Feature", "geometry": {"type": "Point", "coordinates": [126.9185749, 35.176091]}, "properties": {"addr": "전남광주통합특별시 북구 서방로39번길 68(우산동)", "cnt": 1, "place": "여자화장실 내", "type": "화장실"}}, {"type": "Feature", "geometry": {"type": "Point", "coordinates": [126.9187881, 35.17800347]}, "properties": {"addr": "전남광주통합특별시 북구 중문로 55(우산동)", "cnt": 1, "place": "여자화장실 내", "type": "화장실"}}, {"type": "Feature", "geometry": {"type": "Point", "coordinates": [126.9199588, 35.17976369]}, "properties": {"addr": "전남광주통합특별시 북구 중문로83번길 7-10(우산동)", "cnt": 1, "place": "여자화장실 내", "type": "화장실"}}, {"type": "Feature", "geometry": {"type": "Point", "coordinates": [126.9249169, 35.17951449]}, "properties": {"addr": "전남광주통합특별시 북구 평교로 23(문흥동)", "cnt": 1, "place": "여자화장실 내", "type": "화장실"}}, {"type": "Feature", "geometry": {"type": "Point", "coordinates": [126.9241219, 35.184322]}, "properties": {"addr": "전남광주통합특별시 북구 서하로 407(문흥동)", "cnt": 1, "place": "여자화장실 내", "type": "화장실"}}, {"type": "Feature", "geometry": {"type": "Point", "coordinates": [126.923889, 35.19022191]}, "properties": {"addr": "전남광주통합특별시 북구 대천로 186(문흥동)", "cnt": 1, "place": "여자화장실 내", "type": "화장실"}}, {"type": "Feature", "geometry": {"type": "Point", "coordinates": [126.9213228, 35.19067459]}, "properties": {"addr": "전남광주통합특별시 북구 대천로157번길 73(문흥동)", "cnt": 1, "place": "여자화장실 내", "type": "화장실"}}, {"type": "Feature", "geometry": {"type": "Point", "coordinates": [126.920325, 35.18696036]}, "properties": {"addr": "전남광주통합특별시 북구 서하로355번길 12(문흥동)", "cnt": 1, "place": "여자화장실 내", "type": "화장실"}}, {"type": "Feature", "geometry": {"type": "Point", "coordinates": [126.9224162, 35.18626587]}, "properties": {"addr": "전남광주통합특별시 북구 문산로 43-8(문흥동)", "cnt": 1, "place": "여자화장실 내", "type": "화장실"}}, {"type": "Feature", "geometry": {"type": "Point", "coordinates": [126.9170025, 35.180658]}, "properties": {"addr": "전남광주통합특별시 북구 문화소통로 214(문흥동)", "cnt": 1, "place": "여자화장실 내", "type": "화장실"}}, {"type": "Feature", "geometry": {"type": "Point", "coordinates": [126.921032, 35.18254778]}, "properties": {"addr": "전남광주통합특별시 북구 문산로 4(문흥동)", "cnt": 1, "place": "여자화장실 내", "type": "화장실"}}, {"type": "Feature", "geometry": {"type": "Point", "coordinates": [126.9247646, 35.18267635]}, "properties": {"addr": "전남광주통합특별시 북구 천지인로 241(문흥동)", "cnt": 1, "place": "여자화장실 내", "type": "화장실"}}, {"type": "Feature", "geometry": {"type": "Point", "coordinates": [126.9194962, 35.18576281]}, "properties": {"addr": "전남광주통합특별시 북구 대천로 119-1(문흥동)", "cnt": 1, "place": "여자화장실 내", "type": "화장실"}}, {"type": "Feature", "geometry": {"type": "Point", "coordinates": [126.9214515, 35.18467526]}, "properties": {"addr": "전남광주통합특별시 북구 문산로 27-7(문흥동)", "cnt": 1, "place": "여자화장실 내", "type": "화장실"}}, {"type": "Feature", "geometry": {"type": "Point", "coordinates": [126.927779, 35.168856]}, "properties": {"addr": "전남광주통합특별시 북구 서방로148번길 18(두암동)", "cnt": 1, "place": "여자화장실 내", "type": "화장실"}}, {"type": "Feature", "geometry": {"type": "Point", "coordinates": [126.9316297, 35.170878]}, "properties": {"addr": "전남광주통합특별시 북구 서방로181번길 43(두암동)", "cnt": 1, "place": "여자화장실 내", "type": "화장실"}}, {"type": "Feature", "geometry": {"type": "Point", "coordinates": [126.933172, 35.177138]}, "properties": {"addr": "전남광주통합특별시 북구 군왕로171번길 10-7(두암동)", "cnt": 1, "place": "여자화장실 내", "type": "화장실"}}, {"type": "Feature", "geometry": {"type": "Point", "coordinates": [126.9366873, 35.17740483]}, "properties": {"addr": "전남광주통합특별시 북구 월동로 67(두암동)", "cnt": 1, "place": "여자화장실 내", "type": "화장실"}}, {"type": "Feature", "geometry": {"type": "Point", "coordinates": [126.9375115, 35.16769944]}, "properties": {"addr": "전남광주통합특별시 북구 삼정로 64(두암동)", "cnt": 1, "place": "여자화장실 내", "type": "화장실"}}, {"type": "Feature", "geometry": {"type": "Point", "coordinates": [126.935695, 35.168638]}, "properties": {"addr": "전남광주통합특별시 북구 삼정로 71-1(두암동)", "cnt": 1, "place": "여자화장실 내", "type": "화장실"}}, {"type": "Feature", "geometry": {"type": "Point", "coordinates": [126.935833, 35.17059371]}, "properties": {"addr": "전남광주통합특별시 북구 삼정로95번길 27(두암동)", "cnt": 1, "place": "여자화장실 내", "type": "화장실"}}, {"type": "Feature", "geometry": {"type": "Point", "coordinates": [126.939697, 35.16212651]}, "properties": {"addr": "전남광주통합특별시 북구 무진성길 58(두암동)", "cnt": 1, "place": "여자화장실 내", "type": "화장실"}}, {"type": "Feature", "geometry": {"type": "Point", "coordinates": [126.9345848, 35.16528946]}, "properties": {"addr": "전남광주통합특별시 북구 삼정로 7(두암동)", "cnt": 1, "place": "여자화장실 내", "type": "화장실"}}, {"type": "Feature", "geometry": {"type": "Point", "coordinates": [126.8996346, 35.19845708]}, "properties": {"addr": "전남광주통합특별시 북구 설죽로 439(삼각동)", "cnt": 1, "place": "여자화장실 내", "type": "화장실"}}, {"type": "Feature", "geometry": {"type": "Point", "coordinates": [126.897398, 35.21310759]}, "properties": {"addr": "전남광주통합특별시 북구 소해로 100(일곡동)", "cnt": 1, "place": "여자화장실 내", "type": "화장실"}}, {"type": "Feature", "geometry": {"type": "Point", "coordinates": [126.9452531, 35.17954341]}, "properties": {"addr": "전남광주통합특별시 북구 각화대로 103-39(각화동)", "cnt": 1, "place": "여자화장실 내", "type": "화장실"}}, {"type": "Feature", "geometry": {"type": "Point", "coordinates": [126.8908154, 35.1684307]}, "properties": {"addr": "전남광주통합특별시 북구 서림로 9(임동)", "cnt": 1, "place": "여자화장실 내", "type": "화장실"}}, {"type": "Feature", "geometry": {"type": "Point", "coordinates": [126.9062834, 35.17275935]}, "properties": {"addr": "전남광주통합특별시 북구 용봉로 87(용봉동)", "cnt": 1, "place": "여자화장실 내", "type": "화장실"}}, {"type": "Feature", "geometry": {"type": "Point", "coordinates": [126.9394986, 35.16812227]}, "properties": {"addr": "전남광주통합특별시 북구 삼정로66번길 42-4(두암동)", "cnt": 1, "place": "여자화장실 내", "type": "화장실"}}, {"type": "Feature", "geometry": {"type": "Point", "coordinates": [126.9933398, 35.16129409]}, "properties": {"addr": "전남광주통합특별시 북구 풍암제길 109 (금곡동)", "cnt": 1, "place": "여자화장실 내", "type": "화장실"}}, {"type": "Feature", "geometry": {"type": "Point", "coordinates": [126.9394986, 35.16812227]}, "properties": {"addr": "전남광주통합특별시 북구 삼정로66번길 42-4(두암동)", "cnt": 1, "place": "여자화장실 내", "type": "화장실"}}, {"type": "Feature", "geometry": {"type": "Point", "coordinates": [126.9415782, 35.17871245]}, "properties": {"addr": "전남광주통합특별시 북구 각화대로 103-5(각화동)", "cnt": 1, "place": "여자화장실 내", "type": "화장실"}}, {"type": "Feature", "geometry": {"type": "Point", "coordinates": [126.9986081, 35.17002663]}, "properties": {"addr": "전남광주통합특별시 북구 송강로 223 (금곡동)", "cnt": 1, "place": "여자화장실 내", "type": "화장실"}}, {"type": "Feature", "geometry": {"type": "Point", "coordinates": [126.891558, 35.194359]}, "properties": {"addr": "전남광주통합특별시 북구 매곡로 127, 전라남도지방공무원교육원 (매곡동)", "cnt": 1, "place": "여자화장실 내", "type": "화장실"}}, {"type": "Feature", "geometry": {"type": "Point", "coordinates": [126.860843, 35.221855]}, "properties": {"addr": "전남광주통합특별시 북구 추암로 44 (오룡동)", "cnt": 1, "place": "여자화장실 내", "type": "화장실"}}, {"type": "Feature", "geometry": {"type": "Point", "coordinates": [126.923, 35.16213]}, "properties": {"addr": "전남광주통합특별시 동구 무등로375번길 15-18, 계림동푸른길공원 공중화장실 (계림동)", "cnt": 1, "place": "계림동 푸른길공원 공중화장실 여자화장실", "type": "화장실"}}, {"type": "Feature", "geometry": {"type": "Point", "coordinates": [126.9194, 35.15096]}, "properties": {"addr": "전남광주통합특별시 동구 제봉로 153-4 (궁동)", "cnt": 1, "place": "궁동공영주차장 공중화장실 여자화장실", "type": "화장실"}}, {"type": "Feature", "geometry": {"type": "Point", "coordinates": [126.9159, 35.15085]}, "properties": {"addr": "전남광주통합특별시 동구 중앙로 197, 원각사 (금남로4가)", "cnt": 1, "place": "원각사 공중화장실 여자화장실 내", "type": "화장실"}}, {"type": "Feature", "geometry": {"type": "Point", "coordinates": [126.9314, 35.08874]}, "properties": {"addr": "전남광주통합특별시 동구 육판서길 157, 내지마을 공중화장실 (내남동)", "cnt": 1, "place": "내지마을 공중화장실 여자화장실", "type": "화장실"}}, {"type": "Feature", "geometry": {"type": "Point", "coordinates": [126.9183, 35.15306]}, "properties": {"addr": "전남광주통합특별시 동구 제봉로178번길 10 (대인동)", "cnt": 1, "place": "대인시장 공중화장실 여자화장실", "type": "화장실"}}, {"type": "Feature", "geometry": {"type": "Point", "coordinates": [126.941, 35.15414]}, "properties": {"addr": "전남광주통합특별시 동구 지호로 231 (산수동)", "cnt": 1, "place": "지산유원지입구 공중화장실 여자화장실", "type": "화장실"}}, {"type": "Feature", "geometry": {"type": "Point", "coordinates": [126.9269, 35.15358]}, "properties": {"addr": "전남광주통합특별시 동구 동명로67번길 22-44 (산수동)", "cnt": 1, "place": "산수문화마당 공중화장실 여자화장실", "type": "화장실"}}, {"type": "Feature", "geometry": {"type": "Point", "coordinates": [126.938, 35.16159]}, "properties": {"addr": "전남광주통합특별시 동구 갈마로 68 (산수동)", "cnt": 1, "place": "두암제2근린공원 공중화장실 여자화장실", "type": "화장실"}}, {"type": "Feature", "geometry": {"type": "Point", "coordinates": [126.9262, 35.14579]}, "properties": {"addr": "전남광주통합특별시 동구 백서로198번길 7 (서석동)", "cnt": 1, "place": "동구장애인복지관 공중화장실 여자화장실", "type": "화장실"}}, {"type": "Feature", "geometry": {"type": "Point", "coordinates": [126.9262, 35.14579]}, "properties": {"addr": "전남광주통합특별시 동구 백서로198번길 7 (서석동)", "cnt": 1, "place": "동구장애인복지관 공중화장실 장애인용화장실", "type": "화장실"}}, {"type": "Feature", "geometry": {"type": "Point", "coordinates": [126.9231, 35.14614]}, "properties": {"addr": "전남광주통합특별시 동구 서남로 1, 동구청 (서석동)", "cnt": 1, "place": "동구청별관 공중화장실 여자화장실", "type": "화장실"}}, {"type": "Feature", "geometry": {"type": "Point", "coordinates": [126.9231, 35.14614]}, "properties": {"addr": "전남광주통합특별시 동구 서남로 1, 동구청 (서석동)", "cnt": 1, "place": "동구청 공중화장실 여자화장실", "type": "화장실"}}, {"type": "Feature", "geometry": {"type": "Point", "coordinates": [126.9535, 35.08031]}, "properties": {"addr": "전남광주통합특별시 동구 남문로 48-8, 공중화장실 (선교동)", "cnt": 1, "place": "너릿재공원 공중화장실 여자화장실", "type": "화장실"}}, {"type": "Feature", "geometry": {"type": "Point", "coordinates": [126.9564, 35.07701]}, "properties": {"addr": "전남광주통합특별시 동구 남문로 1 (선교동)", "cnt": 1, "place": "너릿재옛길정상 공중화장실 여자화장실", "type": "화장실"}}, {"type": "Feature", "geometry": {"type": "Point", "coordinates": [126.9389, 35.12106]}, "properties": {"addr": "전남광주통합특별시 동구 2순환로 872 (소태동)", "cnt": 1, "place": "소태길 공중화장실 여자화장실", "type": "화장실"}}, {"type": "Feature", "geometry": {"type": "Point", "coordinates": [126.9631, 35.09444]}, "properties": {"addr": "전남광주통합특별시 동구 용연길 9 (용연동)", "cnt": 1, "place": "용연마을 공중화장실 여자화장실", "type": "화장실"}}, {"type": "Feature", "geometry": {"type": "Point", "coordinates": [126.9564, 35.12453]}, "properties": {"addr": "전남광주통합특별시 동구 동산길 135, 동적골쉼터 공중화장실 (운림동)", "cnt": 1, "place": "동적골쉼터 공중화장실 여자화장실", "type": "화장실"}}, {"type": "Feature", "geometry": {"type": "Point", "coordinates": [126.9581, 35.12037]}, "properties": {"addr": "전남광주통합특별시 동구 동산길 172 (운림동)", "cnt": 1, "place": "동적골산책로 공중화장실 여자화장실", "type": "화장실"}}, {"type": "Feature", "geometry": {"type": "Point", "coordinates": [126.9473, 35.14954]}, "properties": {"addr": "전남광주통합특별시 동구 지호로164번길 21 (지산동)", "cnt": 1, "place": "지산유원지 공중화장실 여자화장실", "type": "화장실"}}, {"type": "Feature", "geometry": {"type": "Point", "coordinates": [126.9154, 35.14944]}, "properties": {"addr": "전남광주통합특별시 동구 금남로 218-12 (충장로3가)", "cnt": 1, "place": "금남로공원 공중화장실 여자화장실1", "type": "화장실"}}, {"type": "Feature", "geometry": {"type": "Point", "coordinates": [126.9154, 35.14944]}, "properties": {"addr": "전남광주통합특별시 동구 금남로 218-12 (충장로3가)", "cnt": 1, "place": "금남로공원 공중화장실 여자화장실2", "type": "화장실"}}, {"type": "Feature", "geometry": {"type": "Point", "coordinates": [126.9154, 35.14944]}, "properties": {"addr": "전남광주통합특별시 동구 금남로 218-12 (충장로3가)", "cnt": 1, "place": "금남로공원 공중화장실 장애인용화장실", "type": "화장실"}}, {"type": "Feature", "geometry": {"type": "Point", "coordinates": [126.9114, 35.14809]}, "properties": {"addr": "전남광주통합특별시 동구 천변우로 365, 호남동 공영주차장 (호남동)", "cnt": 1, "place": "호남동공영주차장 공중화장실 여자화장실", "type": "화장실"}}, {"type": "Feature", "geometry": {"type": "Point", "coordinates": [126.9216, 35.13892]}, "properties": {"addr": "전남광주통합특별시 동구 제봉로 7 (학동)", "cnt": 1, "place": "남광주시장 공중화장실 1층 남자화장실", "type": "화장실"}}, {"type": "Feature", "geometry": {"type": "Point", "coordinates": [126.9216, 35.13892]}, "properties": {"addr": "전남광주통합특별시 동구 제봉로 7 (학동)", "cnt": 1, "place": "남광주시장 공중화장실 1층 여자화장실", "type": "화장실"}}, {"type": "Feature", "geometry": {"type": "Point", "coordinates": [126.9216, 35.13892]}, "properties": {"addr": "전남광주통합특별시 동구 제봉로 7 (학동)", "cnt": 1, "place": "남광주시장 공중화장실 2층 남자화장실", "type": "화장실"}}, {"type": "Feature", "geometry": {"type": "Point", "coordinates": [126.9216, 35.13892]}, "properties": {"addr": "전남광주통합특별시 동구 제봉로 7 (학동)", "cnt": 1, "place": "남광주시장 공중화장실 2층 여자화장실", "type": "화장실"}}, {"type": "Feature", "geometry": {"type": "Point", "coordinates": [126.9328, 35.11742]}, "properties": {"addr": "전남광주통합특별시 동구 화산로 318-26, 용산체육공원 (용산동)", "cnt": 1, "place": "용산생활체육공원 공중화장실 여자화장실", "type": "화장실"}}]}