{"type": "FeatureCollection", "features": [{"type": "Feature", "geometry": {"type": "Point", "coordinates": [126.81749727535191, 35.1543303560393]}, "properties": {"addr": "광주광역시 광산구 수완로 63", "cnt": 1, "name": "광주광산 수완"}}, {"type": "Feature", "geometry": {"type": "Point", "coordinates": [126.81653294098292, 35.15968417747703]}, "properties": {"addr": "광주광역시 광산구 첨단중앙로106번길 65-15", "cnt": 1, "name": "광주광산 첨단"}}, {"type": "Feature", "geometry": {"type": "Point", "coordinates": [126.80207737803207, 35.14039553624469]}, "properties": {"addr": "광주광역시 광산구 사암로106번길 3", "cnt": 1, "name": "광주광산 우산"}}, {"type": "Feature", "geometry": {"type": "Point", "coordinates": [126.8123566531232, 35.11240853823081]}, "properties": {"addr": "광주광역시 광산구 사암로390번길 13-16", "cnt": 1, "name": "광주광산 월곡"}}, {"type": "Feature", "geometry": {"type": "Point", "coordinates": [126.77943044219762, 35.15386684608826]}, "properties": {"addr": "광주광역시 광산구 상무대로 93", "cnt": 1, "name": "광주광산 도산"}}, {"type": "Feature", "geometry": {"type": "Point", "coordinates": [126.81096421696844, 35.14684152528817]}, "properties": {"addr": "광주광역시 광산구 신흥신기안길 31-6", "cnt": 1, "name": "광주광산 송정"}}, {"type": "Feature", "geometry": {"type": "Point", "coordinates": [126.7948570099843, 35.118257520409394]}, "properties": {"addr": "광주광역시 광산구 고봉로 124", "cnt": 1, "name": "광주광산 하남"}}, {"type": "Feature", "geometry": {"type": "Point", "coordinates": [126.79628954519836, 35.14694553412505]}, "properties": {"addr": "광주광역시 광산구 비아중앙로31번길 14", "cnt": 1, "name": "광주광산 비아"}}, {"type": "Feature", "geometry": {"type": "Point", "coordinates": [126.82068312112295, 35.11887439268964]}, "properties": {"addr": "광주광역시 광산구 평동로 790-16", "cnt": 1, "name": "광주광산 평동"}}, {"type": "Feature", "geometry": {"type": "Point", "coordinates": [126.82633294318163, 35.13145654576322]}, "properties": {"addr": "광주광역시 광산구 동곡로 155", "cnt": 1, "name": "광주광산 동곡"}}, {"type": "Feature", "geometry": {"type": "Point", "coordinates": [126.80899462680931, 35.16113640624545]}, "properties": {"addr": "광주광역시 광산구 삼도로 341-3", "cnt": 1, "name": "광주광산 삼도"}}, {"type": "Feature", "geometry": {"type": "Point", "coordinates": [126.7921926322354, 35.1549510593727]}, "properties": {"addr": "광주광역시 광산구 용진로 395", "cnt": 1, "name": "광주광산 본량"}}, {"type": "Feature", "geometry": {"type": "Point", "coordinates": [126.77815571660986, 35.16388172102077]}, "properties": {"addr": "광주광역시 광산구 하림길 1", "cnt": 1, "name": "광주광산 임곡"}}, {"type": "Feature", "geometry": {"type": "Point", "coordinates": [126.93482965208976, 35.145882198387234]}, "properties": {"addr": "광주광역시 동구 예술길 31-5", "cnt": 1, "name": "광주동부 금남"}}, {"type": "Feature", "geometry": {"type": "Point", "coordinates": [126.95076177296919, 35.12457015276763]}, "properties": {"addr": "광주광역시 동구 양림로119 번길 13", "cnt": 1, "name": "광주동부 학서"}}, {"type": "Feature", "geometry": {"type": "Point", "coordinates": [126.90459998740936, 35.14706283184895]}, "properties": {"addr": "광주광역시 동구 필문대로 157", "cnt": 1, "name": "광주동부 산수"}}, {"type": "Feature", "geometry": {"type": "Point", "coordinates": [126.9133741536887, 35.12201740824812]}, "properties": {"addr": "광주광역시 동구 남문로 570 ", "cnt": 1, "name": "광주동부 지원"}}, {"type": "Feature", "geometry": {"type": "Point", "coordinates": [126.93539855452603, 35.13715285861709]}, "properties": {"addr": "광주광역시 동구 지호로 131", "cnt": 1, "name": "광주동부 지산"}}, {"type": "Feature", "geometry": {"type": "Point", "coordinates": [126.89626749256713, 35.14209103842072]}, "properties": {"addr": "광주광역시 서구 운천로 30", "cnt": 1, "name": "광주서부 금호"}}, {"type": "Feature", "geometry": {"type": "Point", "coordinates": [126.90382469101976, 35.12907308861688]}, "properties": {"addr": "광주광역시 서구 상무연하로 106", "cnt": 1, "name": "광주서부 상무"}}, {"type": "Feature", "geometry": {"type": "Point", "coordinates": [126.87338335279105, 35.158391678717344]}, "properties": {"addr": "광주광역시 서구 화운로 160", "cnt": 1, "name": "광주서부 화정"}}, {"type": "Feature", "geometry": {"type": "Point", "coordinates": [126.89662746550121, 35.15180666613326]}, "properties": {"addr": "광주광역시 서구 화정로 316", "cnt": 1, "name": "광주서부 농성"}}, {"type": "Feature", "geometry": {"type": "Point", "coordinates": [126.88362863620523, 35.17135081977383]}, "properties": {"addr": "광주광역시 서구 유림로98번길 6", "cnt": 1, "name": "광주서부 동천"}}, {"type": "Feature", "geometry": {"type": "Point", "coordinates": [126.87500450754563, 35.13330441764011]}, "properties": {"addr": "광주광역시 서구 염화로134번길 84", "cnt": 1, "name": "광주서부 염주"}}, {"type": "Feature", "geometry": {"type": "Point", "coordinates": [126.88479190830938, 35.13392634757426]}, "properties": {"addr": "광주광역시 서구 풍암1로 33", "cnt": 1, "name": "광주서부 풍암"}}, {"type": "Feature", "geometry": {"type": "Point", "coordinates": [126.8815306185451, 35.11147044203067]}, "properties": {"addr": "광주광역시 남구 월산로 30 ", "cnt": 1, "name": "광주남부 백운"}}, {"type": "Feature", "geometry": {"type": "Point", "coordinates": [126.90115721034768, 35.144169899605636]}, "properties": {"addr": "광주광역시 남구 대남대로149번길 8", "cnt": 1, "name": "광주남부 방림"}}, {"type": "Feature", "geometry": {"type": "Point", "coordinates": [126.88420755830278, 35.15446806144528]}, "properties": {"addr": "광주광역시 남구 화산로 27", "cnt": 1, "name": "광주남부 효덕"}}, {"type": "Feature", "geometry": {"type": "Point", "coordinates": [126.92836123786105, 35.14450915334862]}, "properties": {"addr": "광주광역시 남구 천변좌로 410 ", "cnt": 1, "name": "광주남부 양림"}}, {"type": "Feature", "geometry": {"type": "Point", "coordinates": [126.89541572348708, 35.15462342704067]}, "properties": {"addr": "광주광역시 남구 회재로1217번길 7", "cnt": 1, "name": "광주남부 주월"}}, {"type": "Feature", "geometry": {"type": "Point", "coordinates": [126.90184839577496, 35.145354266913856]}, "properties": {"addr": "광주광역시 남구 고싸움로 136", "cnt": 1, "name": "광주남부 대촌"}}, {"type": "Feature", "geometry": {"type": "Point", "coordinates": [126.93636835928179, 35.20305842847085]}, "properties": {"addr": "광주광역시 북구 중문로 63", "cnt": 1, "name": "광주북부 우산"}}, {"type": "Feature", "geometry": {"type": "Point", "coordinates": [126.9385857438483, 35.14565061649257]}, "properties": {"addr": "광주광역시 북구 북문대로 240", "cnt": 1, "name": "광주북부 동운"}}, {"type": "Feature", "geometry": {"type": "Point", "coordinates": [126.89496273671305, 35.158916836946034]}, "properties": {"addr": "광주광역시 북구 군왕로 146", "cnt": 1, "name": "광주북부 두암"}}, {"type": "Feature", "geometry": {"type": "Point", "coordinates": [126.92799453382258, 35.16040663994421]}, "properties": {"addr": "광주광역시 북구 문화소통로 78", "cnt": 1, "name": "광주북부 용봉"}}, {"type": "Feature", "geometry": {"type": "Point", "coordinates": [126.89535183645948, 35.201814617006654]}, "properties": {"addr": "광주광역시 북구 설죽로 489", "cnt": 1, "name": "광주북부 일곡"}}, {"type": "Feature", "geometry": {"type": "Point", "coordinates": [126.92441520238124, 35.16093331286696]}, "properties": {"addr": "광주광역시 북구 대천로 146", "cnt": 1, "name": "광주북부 문흥"}}, {"type": "Feature", "geometry": {"type": "Point", "coordinates": [126.93246931060865, 35.15597073685053]}, "properties": {"addr": "광주광역시 북구 태봉로 57", "cnt": 1, "name": "광주북부 역전"}}, {"type": "Feature", "geometry": {"type": "Point", "coordinates": [126.93641773487853, 35.152850162088036]}, "properties": {"addr": "광주광역시 북구 본촌마을길102번길 17", "cnt": 1, "name": "광주북부 건국"}}, {"type": "Feature", "geometry": {"type": "Point", "coordinates": [126.92804151629737, 35.18798423750836]}, "properties": {"addr": "광주광역시 북구 동문대로 642 ", "cnt": 1, "name": "광주북부 석곡"}}]}